[{"OBJECT_NAME":"STARLINK-35480","OBJECT_ID":"2025-245J","EPOCH":"2026-03-09T19:56:40.297344","MEAN_MOTION":15.30202658,"ECCENTRICITY":0.00010085,"INCLINATION":53.1566,"RA_OF_ASC_NODE":283.5602,"ARG_OF_PERICENTER":139.7045,"MEAN_ANOMALY":220.4031,"EPHEMERIS_TYPE":0,"CLASSIFICATION_TYPE":"U","NORAD_CAT_ID":66242,"ELEMENT_SET_NO":999,"REV_AT_EPOCH":2127,"BSTAR":0.00080686258,"MEAN_MOTION_DOT":0.00023616,"MEAN_MOTION_DDOT":0},{"OBJECT_NAME":"RE","OBJECT_ID":"2012-048H","EPOCH":"2026-03-09T14:34:58.971936","MEAN_MOTION":15.18958187,"ECCENTRICITY":0.0110372,"INCLINATION":64.6561,"RA_OF_ASC_NODE":148.4253,"ARG_OF_PERICENTER":206.6471,"MEAN_ANOMALY":152.8958,"EPHEMERIS_TYPE":0,"CLASSIFICATION_TYPE":"U","NORAD_CAT_ID":38765,"ELEMENT_SET_NO":999,"REV_AT_EPOCH":10026,"BSTAR":0.00059519,"MEAN_MOTION_DOT":0.00014497,"MEAN_MOTION_DDOT":0}]
